              M50 Cartesian                         M50 Keplerian  
    -----------------------------------       --------------------------------
     X    =       -4215740.72                 A    =         6776702.70  meter
     Y    =         337075.16  meter          E    =           .0005267
     Z    =        5292519.71                 I    =           51.97888
     XDOT =      -1576.878824                 Wp   =           41.09324
     YDOT =      -7467.576393  meter/sec      RA   =           73.51585  deg
     ZDOT =       -776.153836                 TA   =           56.31052
                                              MA   =           56.26032
                                              Ha   =            221.111  n.mi
                                              Hp   =            213.924
 
              M50 Cartesian                         J2K Cartesian  
    -----------------------------------       --------------------------------
     X    =      -13831170.33                 X    =        -4244905.38
     Y    =        1105889.63  feet           Y    =          289769.41  meter
     Z    =       17363909.81                 Z    =         5271969.87
     XDOT =      -5173.486956                 XDOT =       -1489.487117
     YDOT =     -24499.922549  feet/sec       YDOT =       -7484.721542  meter/sec
     ZDOT =      -2546.436470                 ZDOT =        -783.600889
 
              TDR Cartesian                         TDR Cartesian  
    -----------------------------------       --------------------------------
     X    =        3594741.56                 X    =         1095677.23
     Y    =       13516599.33  feet           Y    =         4119859.48  meter
     Z    =       17274518.92                 Z    =         5265273.37
     XDOT =     -22189.067197                 XDOT =       -6763.227682
     YDOT =       9213.358034  feet/sec       YDOT =        2808.231529  meter/sec
     ZDOT =      -2577.451301                 ZDOT =        -785.607157
  
  
    The mean element set is posted at the UTC for which position is
    just north of the next ascending node relative to the above
    vector time
 
 
    TWO LINE MEAN ELEMENT SET
  
    ISS
    1 25544U 98067A   16093.79604609  .00016717  00000-0  10270-3 0  9175
    2 25544  51.6436  74.0584 0002510  15.4772 344.6457 15.54419414 33253
  
  
    Satellite: ISS
    Catalog Number: 25544
    Epoch time:      16093.79604609   =   yrday.fracday
    Element set:     917
    Inclination:       51.6436  deg
    RA of node:        74.0584  deg
    Eccentricity:     .0002510     
    Arg of perigee:    15.4772  deg
    Mean anomaly:     344.6457  deg
    Mean motion:   15.54419414  rev/day
    Decay rate:    1.67170E-04  rev/day^2
    Epoch rev:            3325
    Checksum:              312
 
 
    Coasting Arc #19 (Orbit 3339)
    ---------------------------------------
 
    Vector Time (GMT): 2016/094/17:58:46.000
    Vector Time (MET): N/A
    Weight (LBS)     : 917037.0
 
              M50 Cartesian                         M50 Keplerian  
    -----------------------------------       --------------------------------
     X    =        4591712.09                 A    =         6779010.66  meter
     Y    =        1478289.71  meter          E    =           .0011374
     Z    =       -4773196.76                 I    =           51.97563
     XDOT =        522.819928                 Wp   =           95.68228
     YDOT =       7141.896386  meter/sec      RA   =           68.53910  deg
     ZDOT =       2719.292677                 TA   =          201.07990
                                              MA   =          201.12682
                                              Ha   =            221.096  n.mi
                                              Hp   =            213.999
 
              M50 Cartesian                         J2K Cartesian  
    -----------------------------------       --------------------------------
     X    =       15064672.20                 X    =         4598026.31
     Y    =        4850031.87  feet           Y    =         1529672.05  meter
     Z    =      -15660094.37                 Z    =        -4750876.26
     XDOT =       1715.288478                 XDOT =         429.709480
     YDOT =      23431.418589  feet/sec       YDOT =        7147.222608  meter/sec
     ZDOT =       8921.563901                 ZDOT =        2721.605424
 
              TDR Cartesian                         TDR Cartesian  
    -----------------------------------       --------------------------------
     X    =        1772813.36                 X    =          540353.51
     Y    =      -15822305.32  feet           Y    =        -4822638.66  meter
     Z    =      -15563338.34                 Z    =        -4743705.53
     XDOT =      21495.288207                 XDOT =        6551.763845
     YDOT =      -6361.219717  feet/sec       YDOT =       -1938.899770  meter/sec
     ZDOT =       8930.310361                 ZDOT =        2721.958598
  
  
    The mean element set is posted at the UTC for which position is
    just north of the next ascending node relative to the above
    vector time
 
 
    TWO LINE MEAN ELEMENT SET
  
    ISS
    1 25544U 98067A   16094.76041808  .00016717  00000-0  10270-3 0  9180
    2 25544  51.6429  69.2494 0002573  19.8950 340.2302 15.54400743 33409
  
  
    Satellite: ISS
    Catalog Number: 25544
    Epoch time:      16094.76041808   =   yrday.fracday
    Element set:     918
    Inclination:       51.6429  deg
    RA of node:        69.2494  deg
    Eccentricity:     .0002573     
    Arg of perigee:    19.8950  deg
    Mean anomaly:     340.2302  deg
    Mean motion:   15.54400743  rev/day
    Decay rate:    1.67170E-04  rev/day^2
    Epoch rev:            3340
    Checksum:              303
 
 
    Coasting Arc #20 (Orbit 3340)
    ---------------------------------------
 
    Vector Time (GMT): 2016/094/19:05:00.000
    Vector Time (MET): N/A
    Weight (LBS)     : 917037.0
 
              M50 Cartesian                         M50 Keplerian  
    -----------------------------------       --------------------------------
     X    =       -1454434.49                 A    =         6787885.85  meter
     Y    =       -6492046.46  meter          E    =           .0007724
     Z    =       -1336512.75                 I    =           52.00383
     XDOT =       4952.377962                 Wp   =          126.79990
     YDOT =         89.121823  meter/sec      RA   =           68.34357  deg
     ZDOT =      -5850.033677                 TA   =           67.67323
                                              MA   =           67.59138
                                              Ha   =            221.091  n.mi
                                              Hp   =            213.977
 
              M50 Cartesian                         J2K Cartesian  
    -----------------------------------       --------------------------------
     X    =       -4771766.71                 X    =        -1375238.53
     Y    =      -21299365.02  feet           Y    =        -6507868.26  meter
     Z    =       -4384884.35                 Z    =        -1343384.90
     XDOT =      16247.959193                 XDOT =        4979.430199
     YDOT =        292.394434  feet/sec       YDOT =         144.653187  meter/sec
     ZDOT =     -19193.023875                 ZDOT =       -5825.910619
 
              TDR Cartesian                         TDR Cartesian  
    -----------------------------------       --------------------------------
     X    =      -16594257.56                 X    =        -5057929.71
     Y    =       14170777.79  feet           Y    =         4319253.07  meter
     Z    =       -4413569.02                 Z    =        -1345255.84
     XDOT =      -6380.686988                 XDOT =       -1944.833394
     YDOT =     -13388.809952  feet/sec       YDOT =       -4080.909273  meter/sec
     ZDOT =     -19088.177933                 ZDOT =       -5818.076634
  
  
    The mean element set is posted at the UTC for which position is
    just north of the next ascending node relative to the above
    vector time
 
 
    TWO LINE MEAN ELEMENT SET
  
    ISS
    1 25544U 98067A   16094.82470936  .00016717  00000-0  10270-3 0  9196
    2 25544  51.6423  68.9286 0002427  19.9042 340.2205 15.54359514 33411
  
  
    Satellite: ISS
    Catalog Number: 25544
    Epoch time:      16094.82470936   =   yrday.fracday
    Element set:     919
    Inclination:       51.6423  deg
    RA of node:        68.9286  deg
    Eccentricity:     .0002427     
    Arg of perigee:    19.9042  deg
    Mean anomaly:     340.2205  deg
    Mean motion:   15.54359514  rev/day
    Decay rate:    1.67170E-04  rev/day^2
    Epoch rev:            3341
    Checksum:              311
 
 
    Coasting Arc #21 (Orbit 3356)
    ---------------------------------------
 
    Vector Time (GMT): 2016/095/19:05:00.000
    Vector Time (MET): N/A
    Weight (LBS)     : 917037.0
 
              M50 Cartesian                         M50 Keplerian  
    -----------------------------------       --------------------------------
     X    =         445207.66                 A    =         6784776.14  meter
     Y    =        6074844.61  meter          E    =           .0014586
     Z    =        2971170.49                 I    =           51.98105
     XDOT =      -5423.997608                 Wp   =           73.48341
     YDOT =      -2065.467776  meter/sec      RA   =           63.39050  deg
     ZDOT =       5019.514925                 TA   =          320.33027
                                              MA   =          320.43687
                                              Ha   =            221.097  n.mi
                                              Hp   =            213.850
 
